$$SOE
2460147.500000000, A.D. 2023-Jul-22 00:00:00.0000, -3.427836682115583E+08, -3.181965044445520E+08, 3.704518000115652E+07,
2460154.500000000, A.D. 2023-Jul-29 00:00:00.0000, -3.356338704395153E+08, -3.243205162758991E+08, 3.834817272557375E+07,
2460161.500000000, A.D. 2023-Aug-05 00:00:00.0000, -3.283254850456403E+08, -3.302912365501286E+08, 3.963303945249438E+07,
2460168.500000000, A.D. 2023-Aug-12 00:00:00.0000, -3.208610692763181E+08, -3.361049392681165E+08, 4.089906432622230E+07,
2460175.500000000, A.D. 2023-Aug-19 00:00:00.0000, -3.132432588835155E+08, -3.417579036973565E+08, 4.214552885508439E+07,
2460182.500000000, A.D. 2023-Aug-26 00:00:00.0000, -3.054747702080570E+08, -3.472464149372716E+08, 4.337171193452941E+07,
2460189.500000000, A.D. 2023-Sep-02 00:00:00.0000, -2.975584023525373E+08, -3.525667646533734E+08, 4.457688987857303E+07,
2460196.500000000, A.D. 2023-Sep-09 00:00:00.0000, -2.894970394067136E+08, -3.577152520270098E+08, 4.576033645388277E+07,
2460203.500000000, A.D. 2023-Sep-16 00:00:00.0000, -2.812936525561463E+08, -3.626881849843485E+08, 4.692132289737687E+07,
2460210.500000000, A.D. 2023-Sep-23 00:00:00.0000, -2.729513016565878E+08, -3.674818814236478E+08, 4.805911790369102E+07,
2460217.500000000, A.D. 2023-Sep-30 00:00:00.0000, -2.644731366122119E+08, -3.720926692559165E+08, 4.917298771210253E+07,
2460224.500000000, A.D. 2023-Oct-07 00:00:00.0000, -2.558624009091192E+08, -3.765168858076420E+08, 5.026219646550693E+07,
2460231.500000000, A.D. 2023-Oct-14 00:00:00.0000, -2.471224362615348E+08, -3.807508799058797E+08, 5.132600647648971E+07,
2460238.500000000, A.D. 2023-Oct-21 00:00:00.0000, -2.382566851402330E+08, -3.847910150513973E+08, 5.236367823695806E+07,
2460245.500000000, A.D. 2023-Oct-28 00:00:00.0000, -2.292686926057746E+08, -3.886336714275290E+08, 5.337447048849823E+07,
2460252.500000000, A.D. 2023-Nov-04 00:00:00.0000, -2.201621086937830E+08, -3.922752475221407E+08, 5.435764040683122E+07,
2460259.500000000, A.D. 2023-Nov-11 00:00:00.0000, -2.109406911708506E+08, -3.957121619697480E+08, 5.531244383660203E+07,
2460266.500000000, A.D. 2023-Nov-18 00:00:00.0000, -2.016083084369436E+08, -3.989408556860165E+08, 5.623813555265236E+07,
2460273.500000000, A.D. 2023-Nov-25 00:00:00.0000, -1.921689424964534E+08, -4.019577942809653E+08, 5.713396954464611E+07,
2460280.500000000, A.D. 2023-Dec-02 00:00:00.0000, -1.826266919645620E+08, -4.047594707715467E+08, 5.799919932346669E+07,
2460287.500000000, A.D. 2023-Dec-09 00:00:00.0000, -1.729857750255840E+08, -4.073424086620753E+08, 5.883307823942663E+07,
2460294.500000000, A.D. 2023-Dec-16 00:00:00.0000, -1.632505320495228E+08, -4.097031653895022E+08, 5.963485978889753E+07,
2460301.500000000, A.D. 2023-Dec-23 00:00:00.0000, -1.534254275113304E+08, -4.118383354557100E+08, 6.040379793547089E+07,
2460308.500000000, A.D. 2023-Dec-30 00:00:00.0000, -1.435150525450057E+08, -4.137445522069082E+08, 6.113914765607245E+07,
2460315.500000000, A.D. 2024-Jan-06 00:00:00.0000, -1.335241298952963E+08, -4.154184906301342E+08, 6.184016568322450E+07,
2460322.500000000, A.D. 2024-Jan-13 00:00:00.0000, -1.234575180834499E+08, -4.168568729846543E+08, 6.250611100659029E+07,
2460329.500000000, A.D. 2024-Jan-20 00:00:00.0000, -1.133202135527695E+08, -4.180564741958738E+08, 6.313624527605388E+07,
2460336.500000000, A.D. 2024-Jan-27 00:00:00.0000, -1.031173528116684E+08, -4.190141263709580E+08, 6.372983334822671E+07,
2460343.500000000, A.D. 2024-Feb-03 00:00:00.0000, -9.285421499054790E+07, -4.197267233950812E+08, 6.428614394049883E+07,
2460350.500000000, A.D. 2024-Feb-10 00:00:00.0000, -8.253622452192684E+07, -4.201912259086262E+08, 6.480445034547280E+07,
2460357.500000000, A.D. 2024-Feb-17 00:00:00.0000, -7.216895379015352E+07, -4.204046666653495E+08, 6.528403119532108E+07,
2460364.500000000, A.D. 2024-Feb-24 00:00:00.0000, -6.175812569727141E+07, -4.203641562639909E+08, 6.572417127522306E+07,
2460371.500000000, A.D. 2024-Mar-02 00:00:00.0000, -5.130961609553815E+07, -4.200668892936185E+08, 6.612416238185367E+07,
2460378.500000000, A.D. 2024-Mar-09 00:00:00.0000, -4.082945592566056E+07, -4.195101509647387E+08, 6.648330421093082E+07,
2460385.500000000, A.D. 2024-Mar-16 00:00:00.0000, -3.032383264240010E+07, -4.186913240393820E+08, 6.680090525632109E+07,
2460392.500000000, A.D. 2024-Mar-23 00:00:00.0000, -1.979909100795483E+07, -4.176078949615626E+08, 6.707628382393447E+07,
2460399.500000000, A.D. 2024-Mar-30 00:00:00.0000, -9.261735470562939E+06, -4.162574592231348E+08, 6.730876936660320E+07,
2460406.500000000, A.D. 2024-Apr-06 00:00:00.0000, 1.281566153607425E+06, -4.146377293382214E+08, 6.749770384337489E+07,
2460413.500000000, A.D. 2024-Apr-13 00:00:00.0000, 1.182398127488914E+07, -4.127465445947832E+08, 6.764244284794693E+07,
2460420.500000000, A.D. 2024-Apr-20 00:00:00.0000, 2.235851247874045E+07, -4.105818799108618E+08, 6.774235681451488E+07,
2460427.500000000, A.D. 2024-Apr-27 00:00:00.0000, 3.287799734333146E+07, -4.081418543586602E+08, 6.779683239612171E+07,
2460434.500000000, A.D. 2024-May-04 00:00:00.0000, 4.337510824791391E+07, -4.054247400593076E+08, 6.780527395141530E+07,
2460441.500000000, A.D. 2024-May-11 00:00:00.0000, 5.384235244614071E+07, -4.024289715473458E+08, 6.776710511078502E+07,
2460448.500000000, A.D. 2024-May-18 00:00:00.0000, 6.427207252407283E+07, -3.991531555779732E+08, 6.768177041687740E+07,
2460455.500000000, A.D. 2024-May-25 00:00:00.0000, 7.465644730759504E+07, -3.955960813762096E+08, 6.754873703703997E+07,
2460462.500000000, A.D. 2024-Jun-01 00:00:00.0000, 8.498749332125561E+07, -3.917567313753092E+08, 6.736749653787856E+07,
2460469.500000000, A.D. 2024-Jun-08 00:00:00.0000, 9.525706708841984E+07, -3.876342924551609E+08, 6.713756669790788E+07,
2460476.500000000, A.D. 2024-Jun-15 00:00:00.0000, 1.054568687163940E+08, -3.832281671204579E+08, 6.685849336637652E+07,
2460483.500000000, A.D. 2024-Jun-22 00:00:00.0000, 1.155784458056784E+08, -3.785379834241186E+08, 6.652985255584571E+07,
2460490.500000000, A.D. 2024-Jun-29 00:00:00.0000, 1.256131956065348E+08, -3.735636054314799E+08, 6.615125281219953E+07,
2460497.500000000, A.D. 2024-Jul-06 00:00:00.0000, 1.355523681142915E+08, -3.683051466654660E+08, 6.572233741416998E+07,
2460504.500000000, A.D. 2024-Jul-13 00:00:00.0000, 1.453870721003775E+08, -3.627629836743932E+08, 6.524278645068914E+07,
2460511.500000000, A.D. 2024-Jul-20 00:00:00.0000, 1.551082821407472E+08, -3.569377685350398E+08, 6.471231904771936E+07,
2460518.500000000, A.D. 2024-Jul-27 00:00:00.0000, 1.647068460325375E+08, -3.508304412054912E+08, 6.413069572073512E+07,
2460525.500000000, A.D. 2024-Aug-03 00:00:00.0000, 1.741734929184837E+08, -3.444422420518085E+08, 6.349772079062650E+07,
2460532.500000000, A.D. 2024-Aug-10 00:00:00.0000, 1.834988423304445E+08, -3.377747244966493E+08, 6.281324484015699E+07,
2460539.500000000, A.D. 2024-Aug-17 00:00:00.0000, 1.926734142426855E+08, -3.308297677061581E+08, 6.207716720021567E+07,
2460546.500000000, A.D. 2024-Aug-24 00:00:00.0000, 2.016876402029549E+08, -3.236095892690802E+08, 6.128943845203973E+07,
2460553.500000000, A.D. 2024-Aug-31 00:00:00.0000, 2.105318756939896E+08, -3.161167578547671E+08, 6.045006291915730E+07,
2460560.500000000, A.D. 2024-Sep-07 00:00:00.0000, 2.191964141243576E+08, -3.083542056434304E+08, 5.955910111456333E+07,
2460567.500000000, A.D. 2024-Sep-14 00:00:00.0000, 2.276715025617815E+08, -3.003252394477826E+08, 5.861667220466527E+07,
2460574.500000000, A.D. 2024-Sep-21 00:00:00.0000, 2.359473572002349E+08, -2.920335500223067E+08, 5.762295669600459E+07,
2460581.500000000, A.D. 2024-Sep-28 00:00:00.0000, 2.440141780851203E+08, -2.834832226878353E+08, 5.657819910933808E+07,
2460588.500000000, A.D. 2024-Oct-05 00:00:00.0000, 2.518621667717106E+08, -2.746787491625088E+08, 5.548271028688119E+07,
2460595.500000000, A.D. 2024-Oct-12 00:00:00.0000, 2.594815465549276E+08, -2.656250375088415E+08, 5.433686959159270E+07,
2460602.500000000, A.D. 2024-Oct-19 00:00:00.0000, 2.668625835078909E+08, -2.563274203548776E+08, 5.314112711858360E+07,
2460609.500000000, A.D. 2024-Oct-26 00:00:00.0000, 2.739956082729642E+08, -2.467916620744085E+08, 5.189600583636405E+07,
2460616.500000000, A.D. 2024-Nov-02 00:00:00.0000, 2.808710388253617E+08, -2.370239649549529E+08, 5.060210360084629E+07,
2460623.500000000, A.D. 2024-Nov-09 00:00:00.0000, 2.874794042543867E+08, -2.270309742100536E+08, 4.926009501182798E+07,
2460630.500000000, A.D. 2024-Nov-16 00:00:00.0000, 2.938113695227534E+08, -2.168197817101210E+08, 4.787073308501399E+07,
2460637.500000000, A.D. 2024-Nov-23 00:00:00.0000, 2.998577611728423E+08, -2.063979283550696E+08, 4.643485070609777E+07,
2460644.500000000, A.D. 2024-Nov-30 00:00:00.0000, 3.056095940987719E+08, -1.957734050066428E+08, 4.495336182011817E+07,
2460651.500000000, A.D. 2024-Dec-07 00:00:00.0000, 3.110580997038059E+08, -1.849546514416582E+08, 4.342726233018158E+07,
2460658.500000000, A.D. 2024-Dec-14 00:00:00.0000, 3.161947546419100E+08, -1.739505519962192E+08, 4.185763084936303E+07,
2460665.500000000, A.D. 2024-Dec-21 00:00:00.0000, 3.210113076931946E+08, -1.627704290477718E+08, 4.024562939738812E+07,
2460672.500000000, A.D. 2024-Dec-28 00:00:00.0000, 3.254998065926536E+08, -1.514240372144016E+08, 3.859250359702483E+07,
2460679.500000000, A.D. 2025-Jan-04 00:00:00.0000, 3.296526272422333E+08, -1.399215558142609E+08, 3.689958230508825E+07,
2460686.500000000, A.D. 2025-Jan-11 00:00:00.0000, 3.334625033078539E+08, -1.282735778585431E+08, 3.516827696234822E+07,
2460693.500000000, A.D. 2025-Jan-18 00:00:00.0000, 3.369225550960956E+08, -1.164910964469006E+08, 3.340008065531974E+07,
2460700.500000000, A.D. 2025-Jan-25 00:00:00.0000, 3.400263177550079E+08, -1.045854890075364E+08, 3.159656681515803E+07,
2460707.500000000, A.D. 2025-Feb-01 00:00:00.0000, 3.427677687810208E+08, -9.256849939905068E+07, 2.975938752299547E+07,
2460714.500000000, A.D. 2025-Feb-08 00:00:00.0000, 3.451413546767260E+08, -8.045221786233523E+07, 2.789027141039107E+07,
$$EOE